0 COSMOS 1831
1 17586U 87026E   13281.05348914  .00000044  00000-0  18020-3 0  2039
2 17586 082.5564 273.0699 0013450 238.2138 229.6584 12.65418079227410
0 COSMOS 1831
1 17586U 87026E   13283.10062648  .00000057  00000-0  24860-3 0  2048
2 17586 082.5564 271.7522 0013491 233.2931 195.6624 12.65418361227670
0 COSMOS 1831
1 17586U 87026E   13285.48353743  .00000025  00000-0  77921-4 0  2053
2 17586 082.5565 270.2182 0013541 227.5773 251.3158 12.65418780227973
0 COSMOS 1831
1 17586U 87026E   13288.08171088  .00000005  00000-0 -28272-4 0  2067
2 17586 082.5570 268.5455 0013659 221.4312 207.5429 12.65418987228305
0 COSMOS 1831
1 17586U 87026E   13290.14849917  .00000008  00000-0 -14888-4 0  2072
2 17586 082.5575 267.2150 0013716 216.5056 263.0325 12.65418727228564
0 COSMOS 1831
1 17586U 87026E   13292.82773362  .00000055  00000-0  23693-3 0  2084
2 17586 082.5580 265.4905 0013824 210.2214 228.4886 12.65418663228909
0 COSMOS 1831
1 17586U 87026E   13294.87930270  .00000055  00000-0  23865-3 0  2096
2 17586 082.5581 264.1703 0013886 205.4084 214.5672 12.65418635229168
